[{"OBJECT_NAME":"STARLINK-3153","OBJECT_ID":"2021-104Z","EPOCH":"2026-03-09T17:05:12.622560","MEAN_MOTION":15.08846608,"ECCENTRICITY":0.00012935,"INCLINATION":53.2163,"RA_OF_ASC_NODE":229.203,"ARG_OF_PERICENTER":91.3606,"MEAN_ANOMALY":268.7535,"EPHEMERIS_TYPE":0,"CLASSIFICATION_TYPE":"U","NORAD_CAT_ID":49431,"ELEMENT_SET_NO":999,"REV_AT_EPOCH":23863,"BSTAR":1.1858522e-5,"MEAN_MOTION_DOT":-9.9e-7,"MEAN_MOTION_DDOT":0},{"OBJECT_NAME":"FENGYUN 1C DEB","OBJECT_ID":"1999-025BZZ","EPOCH":"2026-03-09T13:05:44.544480","MEAN_MOTION":14.97363263,"ECCENTRICITY":0.00745573,"INCLINATION":99.0712,"RA_OF_ASC_NODE":279.0573,"ARG_OF_PERICENTER":15.484,"MEAN_ANOMALY":344.8634,"EPHEMERIS_TYPE":0,"CLASSIFICATION_TYPE":"U","NORAD_CAT_ID":31619,"ELEMENT_SET_NO":999,"REV_AT_EPOCH":64782,"BSTAR":0.0036839182,"MEAN_MOTION_DOT":0.00045478,"MEAN_MOTION_DDOT":0}]
